start=new Date('2022-06-19T00:00:00.000Z').valueOf();
sats=[{"ARG_OF_PERICENTER":"15.0395","MEAN_ANOMALY":"298.7912","ELEMENT_SET_NO":"999","EPOCH":"2022-06-16T02:00:01.000224","OBJECT_NAME":"STARLINK-3811","COUNTRY_CODE":"US","INCLINATION":"53.2134","TLE_LINE1":"1 52383U 22045BE  22167.08334491 -.00034932  00000-0 -24480-3 0  9998","REF_FRAME":"TEME","REV_AT_EPOCH":"130","DECAY_DATE":null,"EPHEMERIS_TYPE":"0","FILE":"3497002","OBJECT_TYPE":"PAYLOAD","MEAN_MOTION":"15.73255178","BSTAR":"-0.00024480000000","CLASSIFICATION_TYPE":"U","TIME_SYSTEM":"UTC","LAUNCH_DATE":"2022-04-29","PERIOD":"91.530","OBJECT_ID":"2022-045BE","ECCENTRICITY":"0.00035860","RCS_SIZE":"LARGE","GP_ID":"206291441","MEAN_MOTION_DDOT":"0.0000000000000","PERIAPSIS":"347.190","SEMIMAJOR_AXIS":"6727.738","MEAN_MOTION_DOT":"-0.00034932","RA_OF_ASC_NODE":"202.6504","NORAD_CAT_ID":"52383","SITE":"AFETR","TLE_LINE2":"2 52383  53.2134 202.6504 0003586  15.0395 298.7912 15.73255178  1301","APOAPSIS":"352.015","CENTER_NAME":"EARTH","MEAN_ELEMENT_THEORY":"SGP4"},{"OBJECT_ID":"2022-049A","MEAN_MOTION_DDOT":"0.0000000000000","GP_ID":"206291651","RCS_SIZE":"LARGE","ECCENTRICITY":"0.00016580","CLASSIFICATION_TYPE":"U","BSTAR":"-0.01966000000000","MEAN_MOTION":"15.38108761","LAUNCH_DATE":"2022-05-06","PERIOD":"93.621","TIME_SYSTEM":"UTC","SITE":"AFETR","NORAD_CAT_ID":"52451","MEAN_ELEMENT_THEORY":"SGP4","CENTER_NAME":"EARTH","APOAPSIS":"452.837","TLE_LINE2":"2 52451  53.2174  68.0693 0001658  42.8606   4.7855 15.38108761  1302","SEMIMAJOR_AXIS":"6829.839","PERIAPSIS":"450.572","RA_OF_ASC_NODE":"68.0693","MEAN_MOTION_DOT":"-0.00693525","OBJECT_NAME":"STARLINK-3870","EPOCH":"2022-06-16T02:00:01.000224","INCLINATION":"53.2174","COUNTRY_CODE":"US","ARG_OF_PERICENTER":"42.8606","ELEMENT_SET_NO":"999","MEAN_ANOMALY":"4.7855","REV_AT_EPOCH":"130","OBJECT_TYPE":"PAYLOAD","EPHEMERIS_TYPE":"0","FILE":"3497002","DECAY_DATE":null,"TLE_LINE1":"1 52451U 22049A   22167.08334491 -.00693525  00000-0 -19660-1 0  9999","REF_FRAME":"TEME"},{"OBJECT_NAME":"STARLINK-3909","EPOCH":"2022-06-16T02:00:01.000224","COUNTRY_CODE":"US","INCLINATION":"53.2173","ARG_OF_PERICENTER":"48.6056","MEAN_ANOMALY":"320.5998","ELEMENT_SET_NO":"999","REV_AT_EPOCH":"130","DECAY_DATE":null,"EPHEMERIS_TYPE":"0","FILE":"3497002","OBJECT_TYPE":"PAYLOAD","TLE_LINE1":"1 52452U 22049B   22167.08334491 -.00690582  00000-0 -20411-1 0  9996","REF_FRAME":"TEME","OBJECT_ID":"2022-049B","ECCENTRICITY":"0.00014810","GP_ID":"206291548","RCS_SIZE":"LARGE","MEAN_MOTION_DDOT":"0.0000000000000","MEAN_MOTION":"15.36820191","CLASSIFICATION_TYPE":"U","BSTAR":"-0.02041100000000","TIME_SYSTEM":"UTC","LAUNCH_DATE":"2022-05-06","PERIOD":"93.700","NORAD_CAT_ID":"52452","SITE":"AFETR","TLE_LINE2":"2 52452  53.2173  68.0041 0001481  48.6056 320.5998 15.36820191  1309","APOAPSIS":"456.533","MEAN_ELEMENT_THEORY":"SGP4","CENTER_NAME":"EARTH","PERIAPSIS":"454.509","SEMIMAJOR_AXIS":"6833.656","MEAN_MOTION_DOT":"-0.00690582","RA_OF_ASC_NODE":"68.0041"},{"TLE_LINE2":"2 52453  53.2175  68.0861 0001651  41.1959  18.9598 15.38511301  1307","CENTER_NAME":"EARTH","MEAN_ELEMENT_THEORY":"SGP4","APOAPSIS":"451.640","SITE":"AFETR","NORAD_CAT_ID":"52453","MEAN_MOTION_DOT":"-0.00702963","RA_OF_ASC_NODE":"68.0861","PERIAPSIS":"449.385","SEMIMAJOR_AXIS":"6828.648","ECCENTRICITY":"0.00016510","GP_ID":"206291814","RCS_SIZE":"LARGE","MEAN_MOTION_DDOT":"0.0000000000000","OBJECT_ID":"2022-049C","TIME_SYSTEM":"UTC","LAUNCH_DATE":"2022-05-06","PERIOD":"93.597","MEAN_MOTION":"15.38511301","BSTAR":"-0.01968700000000","CLASSIFICATION_TYPE":"U","FILE":"3497002","EPHEMERIS_TYPE":"0","DECAY_DATE":null,"OBJECT_TYPE":"PAYLOAD","REV_AT_EPOCH":"130","REF_FRAME":"TEME","TLE_LINE1":"1 52453U 22049C   22167.08334491 -.00702963  00000-0 -19687-1 0  9997","COUNTRY_CODE":"US","INCLINATION":"53.2175","EPOCH":"2022-06-16T02:00:01.000224","OBJECT_NAME":"STARLINK-3872","MEAN_ANOMALY":"18.9598","ELEMENT_SET_NO":"999","ARG_OF_PERICENTER":"41.1959"},{"OBJECT_ID":"2022-049D","ECCENTRICITY":"0.00016250","MEAN_MOTION_DDOT":"0.0000000000000","GP_ID":"206291103","RCS_SIZE":"MEDIUM","MEAN_MOTION":"15.38311026","CLASSIFICATION_TYPE":"U","BSTAR":"-0.01971400000000","TIME_SYSTEM":"UTC","LAUNCH_DATE":"2022-05-06","PERIOD":"93.609","NORAD_CAT_ID":"52454","SITE":"AFETR","TLE_LINE2":"2 52454  53.2175  68.0772 0001625  41.0257  12.9211 15.38311026  1308","CENTER_NAME":"EARTH","MEAN_ELEMENT_THEORY":"SGP4","APOAPSIS":"452.215","PERIAPSIS":"449.996","SEMIMAJOR_AXIS":"6829.240","MEAN_MOTION_DOT":"-0.00699576","RA_OF_ASC_NODE":"68.0772","OBJECT_NAME":"STARLINK-3888","EPOCH":"2022-06-16T02:00:01.000224","COUNTRY_CODE":"US","INCLINATION":"53.2175","ARG_OF_PERICENTER":"41.0257","MEAN_ANOMALY":"12.9211","ELEMENT_SET_NO":"999","REV_AT_EPOCH":"130","EPHEMERIS_TYPE":"0","FILE":"3497002","DECAY_DATE":null,"OBJECT_TYPE":"PAYLOAD","TLE_LINE1":"1 52454U 22049D   22167.08334491 -.00699576  00000-0 -19714-1 0  9994","REF_FRAME":"TEME"},{"GP_ID":"206291305","MEAN_MOTION_DDOT":"0.0000000000000","RCS_SIZE":"MEDIUM","ECCENTRICITY":"0.00013450","OBJECT_ID":"2022-049E","LAUNCH_DATE":"2022-05-06","PERIOD":"93.588","TIME_SYSTEM":"UTC","CLASSIFICATION_TYPE":"U","BSTAR":"-0.01966300000000","MEAN_MOTION":"15.38657147","APOAPSIS":"451.000","CENTER_NAME":"EARTH","MEAN_ELEMENT_THEORY":"SGP4","TLE_LINE2":"2 52455  53.2175  68.0925 0001345  66.6113 358.2428 15.38657147  1305","NORAD_CAT_ID":"52455","SITE":"AFETR","RA_OF_ASC_NODE":"68.0925","MEAN_MOTION_DOT":"-0.00705253","SEMIMAJOR_AXIS":"6828.216","PERIAPSIS":"449.163","INCLINATION":"53.2175","COUNTRY_CODE":"US","EPOCH":"2022-06-16T02:00:01.000224","OBJECT_NAME":"STARLINK-3890","ELEMENT_SET_NO":"999","MEAN_ANOMALY":"358.2428","ARG_OF_PERICENTER":"66.6113","OBJECT_TYPE":"PAYLOAD","DECAY_DATE":null,"FILE":"3497002","EPHEMERIS_TYPE":"0","REV_AT_EPOCH":"130","REF_FRAME":"TEME","TLE_LINE1":"1 52455U 22049E   22167.08334491 -.00705253  00000-0 -19663-1 0  9998"},{"TLE_LINE1":"1 52456U 22049F   22167.08334491 -.00709417  00000-0 -19657-1 0  9998","REF_FRAME":"TEME","REV_AT_EPOCH":"130","OBJECT_TYPE":"PAYLOAD","EPHEMERIS_TYPE":"0","FILE":"3497002","DECAY_DATE":null,"ARG_OF_PERICENTER":"47.6408","ELEMENT_SET_NO":"999","MEAN_ANOMALY":"23.2624","EPOCH":"2022-06-16T02:00:01.000224","OBJECT_NAME":"STARLINK-3896","INCLINATION":"53.2175","COUNTRY_CODE":"US","SEMIMAJOR_AXIS":"6827.622","PERIAPSIS":"448.408","RA_OF_ASC_NODE":"68.1012","MEAN_MOTION_DOT":"-0.00709417","NORAD_CAT_ID":"52456","SITE":"AFETR","MEAN_ELEMENT_THEORY":"SGP4","CENTER_NAME":"EARTH","APOAPSIS":"450.567","TLE_LINE2":"2 52456  53.2175  68.1012 0001581  47.6408  23.2624 15.38858006  1306","CLASSIFICATION_TYPE":"U","BSTAR":"-0.01965700000000","MEAN_MOTION":"15.38858006","LAUNCH_DATE":"2022-05-06","PERIOD":"93.576","TIME_SYSTEM":"UTC","OBJECT_ID":"2022-049F","GP_ID":"206291203","MEAN_MOTION_DDOT":"0.0000000000000","RCS_SIZE":"LARGE","ECCENTRICITY":"0.00015810"},{"EPHEMERIS_TYPE":"0","FILE":"3497002","DECAY_DATE":null,"OBJECT_TYPE":"PAYLOAD","REV_AT_EPOCH":"130","REF_FRAME":"TEME","TLE_LINE1":"1 52457U 22049G   22167.08334491 -.00705640  00000-0 -19420-1 0  9991","COUNTRY_CODE":"US","INCLINATION":"53.2176","OBJECT_NAME":"STARLINK-3899","EPOCH":"2022-06-16T02:00:01.000224","MEAN_ANOMALY":"357.2779","ELEMENT_SET_NO":"999","ARG_OF_PERICENTER":"79.5844","TLE_LINE2":"2 52457  53.2176  68.1102 0001226  79.5844 357.2779 15.39053529  1301","MEAN_ELEMENT_THEORY":"SGP4","CENTER_NAME":"EARTH","APOAPSIS":"449.746","SITE":"AFETR","NORAD_CAT_ID":"52457","MEAN_MOTION_DOT":"-0.00705640","RA_OF_ASC_NODE":"68.1102","PERIAPSIS":"448.072","SEMIMAJOR_AXIS":"6827.044","ECCENTRICITY":"0.00012260","MEAN_MOTION_DDOT":"0.0000000000000","GP_ID":"206291749","RCS_SIZE":"LARGE","OBJECT_ID":"2022-049G","TIME_SYSTEM":"UTC","LAUNCH_DATE":"2022-05-06","PERIOD":"93.564","MEAN_MOTION":"15.39053529","BSTAR":"-0.01942000000000","CLASSIFICATION_TYPE":"U"},{"MEAN_MOTION_DDOT":"0.0000000000000","GP_ID":"206291449","RCS_SIZE":"LARGE","ECCENTRICITY":"0.00016480","OBJECT_ID":"2022-049H","PERIOD":"93.552","LAUNCH_DATE":"2022-05-06","TIME_SYSTEM":"UTC","BSTAR":"-0.01920300000000","CLASSIFICATION_TYPE":"U","MEAN_MOTION":"15.39249314","APOAPSIS":"449.455","MEAN_ELEMENT_THEORY":"SGP4","CENTER_NAME":"EARTH","TLE_LINE2":"2 52458  53.2175  68.1189 0001648  45.3417  37.3876 15.39249314  1304","NORAD_CAT_ID":"52458","SITE":"AFETR","RA_OF_ASC_NODE":"68.1189","MEAN_MOTION_DOT":"-0.00702580","SEMIMAJOR_AXIS":"6826.465","PERIAPSIS":"447.205","INCLINATION":"53.2175","COUNTRY_CODE":"US","EPOCH":"2022-06-16T02:00:01.000224","OBJECT_NAME":"STARLINK-3898","ELEMENT_SET_NO":"999","MEAN_ANOMALY":"37.3876","ARG_OF_PERICENTER":"45.3417","OBJECT_TYPE":"PAYLOAD","DECAY_DATE":null,"EPHEMERIS_TYPE":"0","FILE":"3497002","REV_AT_EPOCH":"130","REF_FRAME":"TEME","TLE_LINE1":"1 52458U 22049H   22167.08334491 -.00702580  00000-0 -19203-1 0  9991"},{"MEAN_MOTION_DOT":"0.00056378","RA_OF_ASC_NODE":"65.0158","PERIAPSIS":"348.265","SEMIMAJOR_AXIS":"6727.843","TLE_LINE2":"2 52459  53.2171  65.0158 0002146  23.9739 109.1923 15.73218174  1305","MEAN_ELEMENT_THEORY":"SGP4","CENTER_NAME":"EARTH","APOAPSIS":"351.152","SITE":"AFETR","NORAD_CAT_ID":"52459","TIME_SYSTEM":"UTC","LAUNCH_DATE":"2022-05-06","PERIOD":"91.532","MEAN_MOTION":"15.73218174","BSTAR":"0.00040309000000","CLASSIFICATION_TYPE":"U","ECCENTRICITY":"0.00021460","MEAN_MOTION_DDOT":"0.0000000000000","GP_ID":"206291652","RCS_SIZE":"MEDIUM","OBJECT_ID":"2022-049J","REF_FRAME":"TEME","TLE_LINE1":"1 52459U 22049J   22167.08334491  .00056378  00000-0  40309-3 0  9990","EPHEMERIS_TYPE":"0","FILE":"3497002","DECAY_DATE":null,"OBJECT_TYPE":"PAYLOAD","REV_AT_EPOCH":"130","MEAN_ANOMALY":"109.1923","ELEMENT_SET_NO":"999","ARG_OF_PERICENTER":"23.9739","COUNTRY_CODE":"US","INCLINATION":"53.2171","EPOCH":"2022-06-16T02:00:01.000224","OBJECT_NAME":"STARLINK-3856"}];
